METEOSAT-12 (MTG-I1)
1 54743U 22170C   26188.71532159  .00000007  00000+0  00000+0 0  9998
2 54743   0.7171  18.3212 0003972  82.3437  82.3271  1.00266664 13183
